{"type": "FeatureCollection", "features": [ {"type": "Feature", "properties": {"norad_id": 52912, "name": "GAOFEN-12 03", "group": "resource", "lat": 76.56834150972202, "lon": 94.17632861151125, "alt_km": 622.2954307260388, "timestamp": "2025-12-17T15:50:09.434757+00:00", "meta": {"OBJECT_NAME": "GAOFEN-12 03", "OBJECT_ID": "2022-069A", "EPOCH": "2025-12-17T07:15:59.683968", "MEAN_MOTION": 14.79618283, "ECCENTRICITY": 0.00020993, "INCLINATION": 97.8486, "RA_OF_ASC_NODE": 238.546, "ARG_OF_PERICENTER": 55.4328, "MEAN_ANOMALY": 304.7082, "EPHEMERIS_TYPE": 0, "CLASSIFICATION_TYPE": "U", "NORAD_CAT_ID": 52912, "ELEMENT_SET_NO": 999, "REV_AT_EPOCH": 18771, "BSTAR": 6.3110113e-05, "MEAN_MOTION_DOT": 4.22e-06, "MEAN_MOTION_DDOT": 0}, "tle": {"line1": "1 52912U 22069A   25351.30277412  .00000422  00000+0  63110-4 0  9992", "line2": "2 52912  97.8486 238.5460 0002099  55.4328 304.7082 14.79618283187715"}}, "geometry": {"type": "Point", "coordinates": [94.17632861151125, 76.56834150972202]}}, {"type": "Feature", "properties": {"norad_id": 54754, "name": "SWOT", "group": "resource", "lat": 63.72112833219718, "lon": 73.91492451491352, "alt_km": 886.5630292756332, "timestamp": "2025-12-17T15:50:09.434768+00:00", "meta": {"OBJECT_NAME": "SWOT", "OBJECT_ID": "2022-173A", "EPOCH": "2025-12-17T06:43:19.951392", "MEAN_MOTION": 14.00167571, "ECCENTRICITY": 3.682e-05, "INCLINATION": 77.6107, "RA_OF_ASC_NODE": 280.8607, "ARG_OF_PERICENTER": 100.516, "MEAN_ANOMALY": 259.6033, "EPHEMERIS_TYPE": 0, "CLASSIFICATION_TYPE": "U", "NORAD_CAT_ID": 54754, "ELEMENT_SET_NO": 999, "REV_AT_EPOCH": 15369, "BSTAR": 6.3214219e-05, "MEAN_MOTION_DOT": 9.1e-07, "MEAN_MOTION_DDOT": 0}, "tle": {"line1": "1 54754U 22173A   25351.28009203  .00000091  00000+0  63214-4 0  9999", "line2": "2 54754  77.6107 280.8607 0000368 100.5160 259.6033 14.00167571153690"}}, "geometry": {"type": "Point", "coordinates": [73.91492451491352, 63.72112833219718]}}, {"type": "Feature", "properties": {"norad_id": 57654, "name": "GAOFEN-12 04", "group": "resource", "lat": -81.79715228797208, "lon": -17.907034878080623, "alt_km": 638.4226434001139, "timestamp": "2025-12-17T15:50:09.434778+00:00", "meta": {"OBJECT_NAME": "GAOFEN-12 04", "OBJECT_ID": "2023-123A", "EPOCH": "2025-12-17T08:07:04.589184", "MEAN_MOTION": 14.79713606, "ECCENTRICITY": 0.00012635, "INCLINATION": 97.9125, "RA_OF_ASC_NODE": 267.0256, "ARG_OF_PERICENTER": 74.9605, "MEAN_ANOMALY": 285.1746, "EPHEMERIS_TYPE": 0, "CLASSIFICATION_TYPE": "U", "NORAD_CAT_ID": 57654, "ELEMENT_SET_NO": 999, "REV_AT_EPOCH": 12573, "BSTAR": 0.00015865688, "MEAN_MOTION_DOT": 1.14e-05, "MEAN_MOTION_DDOT": 0}, "tle": {"line1": "1 57654U 23123A   25351.33824756  .00001140  00000+0  15866-3 0  9996", "line2": "2 57654  97.9125 267.0256 0001263  74.9605 285.1746 14.79713606125738"}}, "geometry": {"type": "Point", "coordinates": [-17.907034878080623, -81.79715228797208]}}, {"type": "Feature", "properties": {"norad_id": 59065, "name": "PARS 1", "group": "resource", "lat": -46.4944896181898, "lon": -29.36391145756864, "alt_km": 451.804866770839, "timestamp": "2025-12-17T15:50:09.434789+00:00", "meta": {"OBJECT_NAME": "PARS 1", "OBJECT_ID": "2024-039Q", "EPOCH": "2025-12-17T06:41:21.744096", "MEAN_MOTION": 15.41077671, "ECCENTRICITY": 0.0012292, "INCLINATION": 97.4631, "RA_OF_ASC_NODE": 322.3081, "ARG_OF_PERICENTER": 58.6743, "MEAN_ANOMALY": 301.5705, "EPHEMERIS_TYPE": 0, "CLASSIFICATION_TYPE": "U", "NORAD_CAT_ID": 59065, "ELEMENT_SET_NO": 999, "REV_AT_EPOCH": 10058, "BSTAR": 0.00024459937, "MEAN_MOTION_DOT": 0.00010051, "MEAN_MOTION_DDOT": 0}, "tle": {"line1": "1 59065U 24039Q   25351.27872389  .00010051  00000+0  24460-3 0  9990", "line2": "2 59065  97.4631 322.3081 0012292  58.6743 301.5705 15.41077671100589"}}, "geometry": {"type": "Point", "coordinates": [-29.36391145756864, -46.4944896181898]}}, {"type": "Feature", "properties": {"norad_id": 59371, "name": "RESURS-P 4", "group": "resource", "lat": -61.87909931495663, "lon": -48.32083722144914, "alt_km": 477.06965807495453, "timestamp": "2025-12-17T15:50:09.434799+00:00", "meta": {"OBJECT_NAME": "RESURS-P 4", "OBJECT_ID": "2024-061A", "EPOCH": "2025-12-17T08:16:19.663392", "MEAN_MOTION": 15.3212237, "ECCENTRICITY": 0.00011846, "INCLINATION": 97.2547, "RA_OF_ASC_NODE": 297.5801, "ARG_OF_PERICENTER": 56.3789, "MEAN_ANOMALY": 303.7566, "EPHEMERIS_TYPE": 0, "CLASSIFICATION_TYPE": "U", "NORAD_CAT_ID": 59371, "ELEMENT_SET_NO": 999, "REV_AT_EPOCH": 9591, "BSTAR": 0.00011078295, "MEAN_MOTION_DOT": 3.36e-05, "MEAN_MOTION_DDOT": 0}, "tle": {"line1": "1 59371U 24061A   25351.34467203  .00003360  00000+0  11078-3 0  9994", "line2": "2 59371  97.2547 297.5801 0001184  56.3789 303.7566 15.32122370 95915"}}, "geometry": {"type": "Point", "coordinates": [-48.32083722144914, -61.87909931495663]}}, {"type": "Feature", "properties": {"norad_id": 59625, "name": "LEGION 1", "group": "resource", "lat": -65.4679151731318, "lon": -130.5710873385828, "alt_km": 521.9170098048407, "timestamp": "2025-12-17T15:50:09.434810+00:00", "meta": {"OBJECT_NAME": "LEGION 1", "OBJECT_ID": "2024-081A", "EPOCH": "2025-12-17T06:50:02.072544", "MEAN_MOTION": 15.16525603, "ECCENTRICITY": 0.0003735, "INCLINATION": 97.5215, "RA_OF_ASC_NODE": 65.8847, "ARG_OF_PERICENTER": 297.2527, "MEAN_ANOMALY": 62.8325, "EPHEMERIS_TYPE": 0, "CLASSIFICATION_TYPE": "U", "NORAD_CAT_ID": 59625, "ELEMENT_SET_NO": 999, "REV_AT_EPOCH": 8996, "BSTAR": 0.00022114494, "MEAN_MOTION_DOT": 4.244e-05, "MEAN_MOTION_DDOT": 0}, "tle": {"line1": "1 59625U 24081A   25351.28474621  .00004244  00000+0  22114-3 0  9998", "line2": "2 59625  97.5215  65.8847 0003735 297.2527  62.8325 15.16525603 89960"}}, "geometry": {"type": "Point", "coordinates": [-130.5710873385828, -65.4679151731318]}}, {"type": "Feature", "properties": {"norad_id": 59626, "name": "LEGION 2", "group": "resource", "lat": 65.42231270753162, "lon": 49.55209709734794, "alt_km": 513.4257541756369, "timestamp": "2025-12-17T15:50:09.434820+00:00", "meta": {"OBJECT_NAME": "LEGION 2", "OBJECT_ID": "2024-081B", "EPOCH": "2025-12-17T06:02:31.680384", "MEAN_MOTION": 15.16537463, "ECCENTRICITY": 0.00056243, "INCLINATION": 97.5218, "RA_OF_ASC_NODE": 65.9394, "ARG_OF_PERICENTER": 274.2156, "MEAN_ANOMALY": 85.8434, "EPHEMERIS_TYPE": 0, "CLASSIFICATION_TYPE": "U", "NORAD_CAT_ID": 59626, "ELEMENT_SET_NO": 999, "REV_AT_EPOCH": 8996, "BSTAR": 0.00019789146, "MEAN_MOTION_DOT": 3.792e-05, "MEAN_MOTION_DDOT": 0}, "tle": {"line1": "1 59626U 24081B   25351.25175556  .00003792  00000+0  19789-3 0  9992", "line2": "2 59626  97.5218  65.9394 0005624 274.2156  85.8434 15.16537463 89967"}}, "geometry": {"type": "Point", "coordinates": [49.55209709734794, 65.42231270753162]}}, {"type": "Feature", "properties": {"norad_id": 60182, "name": "ALOS-4 (DAICHI-4)", "group": "resource", "lat": 30.943576243831068, "lon": -88.77423370566638, "alt_km": 628.7016885355242, "timestamp": "2025-12-17T15:50:09.434830+00:00", "meta": {"OBJECT_NAME": "ALOS-4 (DAICHI-4)", "OBJECT_ID": "2024-123A", "EPOCH": "2025-12-16T22:56:04.911360", "MEAN_MOTION": 14.79477844, "ECCENTRICITY": 0.00013999, "INCLINATION": 97.9225, "RA_OF_ASC_NODE": 85.7427, "ARG_OF_PERICENTER": 99.1223, "MEAN_ANOMALY": 261.0147, "EPHEMERIS_TYPE": 0, "CLASSIFICATION_TYPE": "U", "NORAD_CAT_ID": 60182, "ELEMENT_SET_NO": 999, "REV_AT_EPOCH": 7893, "BSTAR": 0.00025137573, "MEAN_MOTION_DOT": 1.827e-05, "MEAN_MOTION_DDOT": 0}, "tle": {"line1": "1 60182U 24123A   25350.95561240  .00001827  00000+0  25138-3 0  9995", "line2": "2 60182  97.9225  85.7427 0001399  99.1223 261.0147 14.79477844 78937"}}, "geometry": {"type": "Point", "coordinates": [-88.77423370566638, 30.943576243831068]}}, {"type": "Feature", "properties": {"norad_id": 60452, "name": "LEGION 3", "group": "resource", "lat": 22.72023018863596, "lon": 78.98433413978778, "alt_km": 513.0298581089719, "timestamp": "2025-12-17T15:50:09.434841+00:00", "meta": {"OBJECT_NAME": "LEGION 3", "OBJECT_ID": "2024-146A", "EPOCH": "2025-12-17T05:42:00.231552", "MEAN_MOTION": 15.15810518, "ECCENTRICITY": 0.00153947, "INCLINATION": 45.0024, "RA_OF_ASC_NODE": 286.0198, "ARG_OF_PERICENTER": 223.0132, "MEAN_ANOMALY": 136.9544, "EPHEMERIS_TYPE": 0, "CLASSIFICATION_TYPE": "U", "NORAD_CAT_ID": 60452, "ELEMENT_SET_NO": 999, "REV_AT_EPOCH": 7441, "BSTAR": 0.00023021443, "MEAN_MOTION_DOT": 4.22e-05, "MEAN_MOTION_DDOT": 0}, "tle": {"line1": "1 60452U 24146A   25351.23750268  .00004220  00000+0  23021-3 0  9991", "line2": "2 60452  45.0024 286.0198 0015394 223.0132 136.9544 15.15810518 74416"}}, "geometry": {"type": "Point", "coordinates": [78.98433413978778, 22.72023018863596]}}, {"type": "Feature", "properties": {"norad_id": 60453, "name": "LEGION 4", "group": "resource", "lat": 23.97959796382634, "lon": 169.1302302596214, "alt_km": 520.8659789396424, "timestamp": "2025-12-17T15:50:09.434852+00:00", "meta": {"OBJECT_NAME": "LEGION 4", "OBJECT_ID": "2024-146B", "EPOCH": "2025-12-17T07:17:30.497280", "MEAN_MOTION": 15.15873516, "ECCENTRICITY": 0.0009057, "INCLINATION": 45.0399, "RA_OF_ASC_NODE": 17.4295, "ARG_OF_PERICENTER": 334.7965, "MEAN_ANOMALY": 25.2471, "EPHEMERIS_TYPE": 0, "CLASSIFICATION_TYPE": "U", "NORAD_CAT_ID": 60453, "ELEMENT_SET_NO": 999, "REV_AT_EPOCH": 7327, "BSTAR": 0.0002175649, "MEAN_MOTION_DOT": 3.974e-05, "MEAN_MOTION_DDOT": 0}, "tle": {"line1": "1 60453U 24146B   25351.30382520  .00003974  00000+0  21756-3 0  9990", "line2": "2 60453  45.0399  17.4295 0009057 334.7965  25.2471 15.15873516 73278"}}, "geometry": {"type": "Point", "coordinates": [169.1302302596214, 23.97959796382634]}}]}